[{"OBJECT_NAME":"STARLINK-1577","OBJECT_ID":"2020-055AN","EPOCH":"2026-03-09T12:38:48.106752","MEAN_MOTION":15.30219657,"ECCENTRICITY":0.00013922,"INCLINATION":53.1613,"RA_OF_ASC_NODE":114.5871,"ARG_OF_PERICENTER":79.7271,"MEAN_ANOMALY":280.3887,"EPHEMERIS_TYPE":0,"CLASSIFICATION_TYPE":"U","NORAD_CAT_ID":46063,"ELEMENT_SET_NO":999,"REV_AT_EPOCH":30904,"BSTAR":0.00036799853,"MEAN_MOTION_DOT":0.00010562,"MEAN_MOTION_DDOT":0},{"OBJECT_NAME":"STARLINK-31704","OBJECT_ID":"2024-076Y","EPOCH":"2026-03-09T22:00:01.999584","MEAN_MOTION":15.30892355,"ECCENTRICITY":0.00079744,"INCLINATION":42.9978,"RA_OF_ASC_NODE":323.2923,"ARG_OF_PERICENTER":240.5046,"MEAN_ANOMALY":200.4144,"EPHEMERIS_TYPE":0,"CLASSIFICATION_TYPE":"U","NORAD_CAT_ID":59586,"ELEMENT_SET_NO":999,"REV_AT_EPOCH":581,"BSTAR":0.0024766131,"MEAN_MOTION_DOT":0.00076042,"MEAN_MOTION_DDOT":0}]
